      2.10          N: GNSS NAV DATA                        RINEX VERSION / TYPE
fic2rin                                 07/18/2021 00:17:23 PGM / RUN BY / DATE
                                                            END OF HEADER
10 21  7 17  8  0  0.0-1.636794768274e-04-7.617018127348e-12 0.000000000000e+00
    8.500000000000e+01-1.271875000000e+01 4.453042629957e-09 1.882560858456e+00
   -6.444752216339e-07 6.735749309883e-03 5.578622221947e-06 5.153673198700e+03
    5.472000000000e+05-1.676380634308e-07 3.001882215666e+00 5.960464477539e-08
    9.701280253605e-01 2.762812500000e+02-2.574148551528e+00-8.179983586293e-09
    1.928651764659e-10 1.000000000000e+00 2.166000000000e+03 0.000000000000e+00
    2.400000000000e+00 0.000000000000e+00 2.328306436539e-09 8.500000000000e+01
    5.400000000000e+05 4.000000000000e+00
 9 21  7 17  8  0  0.0-3.557689487934e-04-1.477928890381e-12 0.000000000000e+00
    6.600000000000e+01-4.065625000000e+01 4.734125766769e-09 2.534914092204e-01
   -2.315267920494e-06 1.927160308696e-03 8.968636393547e-06 5.153746263504e+03
    5.472000000000e+05 9.313225746155e-09-2.249277495413e+00 4.470348358154e-08
    9.534363816980e-01 1.997500000000e+02 1.817603486298e+00-8.193198422458e-09
   -1.350056235261e-10 1.000000000000e+00 2.166000000000e+03 0.000000000000e+00
    2.400000000000e+00 0.000000000000e+00 1.396983861923e-09 6.600000000000e+01
    5.400000000000e+05 4.000000000000e+00
 7 21  7 17  8  0  0.0 2.042874693871e-04 8.867573342286e-12 0.000000000000e+00
    4.600000000000e+01 6.778125000000e+01 4.649836541499e-09-3.008939358813e+00
    3.224238753319e-06 1.517618377693e-02 1.072697341442e-05 5.153755777359e+03
    5.472000000000e+05 3.352761268616e-08-1.176635460778e+00-2.216547727585e-07
    9.511872256116e-01 1.687500000000e+02-2.317176624667e+00-7.875685196758e-09
    2.028655930234e-10 1.000000000000e+00 2.166000000000e+03 0.000000000000e+00
    2.400000000000e+00 0.000000000000e+00-1.117587089539e-08 4.600000000000e+01
    5.400000000000e+05 4.000000000000e+00
 4 21  7 17  8  0  0.0-2.025081776083e-04-7.958078640513e-13 0.000000000000e+00
    2.200000000000e+02-3.693750000000e+01 4.539117643898e-09-7.505702649500e-01
   -1.950189471245e-06 1.290387823246e-03 9.279698133469e-06 5.153718978882e+03
    5.472000000000e+05 2.048909664154e-08-2.198033207191e+00 3.725290298462e-08
    9.605160215991e-01 1.970937500000e+02-2.952731209610e+00-8.039620596754e-09
   -9.643258823294e-11 1.000000000000e+00 2.166000000000e+03 0.000000000000e+00
    2.400000000000e+00 0.000000000000e+00-4.190951585770e-09 7.320000000000e+02
    5.400000000000e+05 4.000000000000e+00
29 21  7 17  8  0  0.0-3.814892843366e-04-6.139089236967e-12 0.000000000000e+00
    2.000000000000e+01-4.100000000000e+01 4.008738408617e-09-1.004006251519e-01
   -2.190470695496e-06 1.982202287763e-03 7.666647434235e-06 5.153608310699e+03
    5.472000000000e+05-9.313225746155e-09 9.828978241082e-01-9.499490261078e-08
    9.836573346020e-01 2.450312500000e+02 2.231702650070e+00-7.916758336190e-09
   -3.803729869188e-10 1.000000000000e+00 2.166000000000e+03 0.000000000000e+00
    2.400000000000e+00 0.000000000000e+00-1.024454832077e-08 2.000000000000e+01
    5.400000000000e+05 4.000000000000e+00
31 21  7 17  8  0  0.0-1.290929503739e-04-2.160049916711e-12 0.000000000000e+00
    7.200000000000e+01 4.806250000000e+01 4.655193907512e-09 2.760335046874e+00
    2.572312951088e-06 1.005288236775e-02 1.001358032227e-05 5.153575380325e+03
    5.472000000000e+05-1.862645149231e-07-1.159374986290e+00-1.024454832077e-07
    9.554917201568e-01 1.848437500000e+02 2.703551373995e-01-7.913543916583e-09
    1.921508609975e-10 1.000000000000e+00 2.166000000000e+03 0.000000000000e+00
    2.400000000000e+00 0.000000000000e+00-1.303851604462e-08 7.200000000000e+01
    5.400000000000e+05 4.000000000000e+00
16 21  7 17  8  0  0.0-3.584395162761e-04-6.139089236967e-12 0.000000000000e+00
    6.800000000000e+01 3.434375000000e+01 4.663408535398e-09 7.153195597709e-01
    2.048909664154e-06 1.217269978952e-02 5.031004548073e-06 5.153726446152e+03
    5.472000000000e+05 1.117587089539e-08-4.701949345349e-02 1.154839992523e-07
    9.732758037467e-01 2.875937500000e+02 6.792502422076e-01-8.435708523977e-09
   -2.146517982518e-10 1.000000000000e+00 2.166000000000e+03 0.000000000000e+00
    2.400000000000e+00 0.000000000000e+00-1.024454832077e-08 6.800000000000e+01
    5.400000000000e+05 4.000000000000e+00
27 21  7 17  8  0  0.0-1.641437411308e-04-5.911715561524e-12 0.000000000000e+00
    9.300000000000e+01-2.750000000000e+01 4.281964075277e-09-2.321460300425e-01
   -1.499429345131e-06 9.446327923797e-03 7.010996341705e-06 5.153690597534e+03
    5.472000000000e+05-1.862645149231e-08 9.092796375238e-01 1.210719347000e-07
    9.755563467405e-01 2.496250000000e+02 6.376078153362e-01-8.203555996750e-09
   -4.068026592493e-10 1.000000000000e+00 2.166000000000e+03 0.000000000000e+00
    3.400000000000e+00 0.000000000000e+00 1.862645149231e-09 9.300000000000e+01
    5.400000000000e+05 4.000000000000e+00
30 21  7 17  8  0  0.0-4.517170600593e-04-4.433786671143e-12 0.000000000000e+00
    7.800000000000e+01 6.718750000000e+01 5.090569185497e-09 3.124241868780e+00
    3.496184945107e-06 5.342374322936e-03 1.052021980286e-05 5.153681787491e+03
    5.472000000000e+05-2.421438694000e-08-1.160236137406e+00-3.911554813385e-08
    9.363969731497e-01 1.675312500000e+02-2.742764382551e+00-8.215342201978e-09
    2.125088518467e-10 1.000000000000e+00 2.166000000000e+03 0.000000000000e+00
    2.400000000000e+00 0.000000000000e+00 3.725290298462e-09 7.800000000000e+01
    5.400000000000e+05 4.000000000000e+00
15 21  7 17  8  0  0.0-1.349588856101e-04 2.614797267597e-12 0.000000000000e+00
    7.300000000000e+01-5.140625000000e+01 5.408796726665e-09-1.076163851915e+00
   -2.356246113777e-06 1.334670290817e-02 7.720664143562e-06 5.153642841339e+03
    5.472000000000e+05 2.179294824600e-07-2.349687663180e+00 2.477318048477e-07
    9.292032519709e-01 2.097187500000e+02 9.992923154617e-01-8.598929608505e-09
   -1.614352958566e-10 1.000000000000e+00 2.166000000000e+03 0.000000000000e+00
    2.400000000000e+00 0.000000000000e+00-1.071020960808e-08 7.300000000000e+01
    5.400000000000e+05 4.000000000000e+00
22 21  7 17  8  0  0.0-5.615581758320e-04 9.549694368616e-12 0.000000000000e+00
    7.400000000000e+01-9.687500000000e+00 5.212717130592e-09-1.237789061603e+00
   -4.190951585770e-07 6.907417206094e-03 5.431473255157e-06 5.153782445908e+03
    5.472000000000e+05-8.568167686462e-08 2.903509035514e+00 4.842877388000e-08
    9.358769891588e-01 2.636562500000e+02-9.211484103973e-01-8.605715605455e-09
    3.125130174216e-10 1.000000000000e+00 2.166000000000e+03 0.000000000000e+00
    2.400000000000e+00 0.000000000000e+00-1.769512891769e-08 7.400000000000e+01
    5.400000000000e+05 4.000000000000e+00
32 21  7 17  8  0  0.0 1.361593604088e-05-2.046363078989e-12 0.000000000000e+00
    6.800000000000e+01-5.184375000000e+01 4.681623579842e-09 5.251986779130e-01
   -2.836808562279e-06 5.042973905802e-03 8.799135684967e-06 5.153694454193e+03
    5.472000000000e+05-1.117587089539e-07-2.239021310305e+00 7.636845111847e-08
    9.573804073768e-01 2.104687500000e+02-2.358323729421e+00-8.148910863418e-09
   -1.317912039184e-10 1.000000000000e+00 2.166000000000e+03 0.000000000000e+00
    2.400000000000e+00 0.000000000000e+00 4.656612873077e-10 6.800000000000e+01
    5.400000000000e+05 4.000000000000e+00
19 21  7 17  8  0  0.0 2.738460898399e-05 5.002220859751e-12 0.000000000000e+00
    3.700000000000e+01-4.200000000000e+01 4.099813630837e-09 2.259440058153e+00
   -2.117827534676e-06 9.305541985668e-03 7.769092917442e-06 5.153645158768e+03
    5.472000000000e+05 1.732259988785e-07 1.015433875594e+00-2.793967723846e-08
    9.803247881995e-01 2.355312500000e+02 1.890771426196e+00-7.868899199808e-09
   -5.050210361533e-10 1.000000000000e+00 2.166000000000e+03 0.000000000000e+00
    2.400000000000e+00 0.000000000000e+00-1.536682248116e-08 3.700000000000e+01
    5.400000000000e+05 4.000000000000e+00
21 21  7 17  8  0  0.0 1.317542046309e-04 2.273736754432e-12 0.000000000000e+00
    7.000000000000e+01 4.031250000000e+00 4.514116602504e-09-4.530941682765e-02
    1.844018697739e-07 2.402623859234e-02 9.108334779739e-06 5.153662965775e+03
    5.472000000000e+05-3.129243850708e-07 1.882486989871e+00-4.172325134277e-07
    9.575054737063e-01 2.118437500000e+02-1.112012485361e+00-8.441423047724e-09
    7.000291590243e-11 1.000000000000e+00 2.166000000000e+03 0.000000000000e+00
    2.400000000000e+00 0.000000000000e+00-1.024454832077e-08 7.000000000000e+01
    5.400000000000e+05 4.000000000000e+00
13 21  7 17  8  0  0.0 1.587802544236e-04 5.002220859751e-12 0.000000000000e+00
    4.400000000000e+01-4.512500000000e+01 4.454828418628e-09-7.291537118817e-01
   -2.209097146988e-06 5.128478165716e-03 1.003593206406e-05 5.153680715561e+03
    5.472000000000e+05 5.774199962616e-08-2.099822838118e+00 4.842877388000e-08
    9.680677627195e-01 1.907187500000e+02 9.546627956631e-01-8.038191965817e-09
   -1.828647599084e-10 1.000000000000e+00 2.166000000000e+03 0.000000000000e+00
    2.400000000000e+00 0.000000000000e+00-1.117587089539e-08 4.400000000000e+01
    5.400000000000e+05 4.000000000000e+00
25 21  7 17  8  0  0.0 1.749335788190e-04 6.707523425575e-12 0.000000000000e+00
    5.000000000000e+01 5.025000000000e+01 4.831629828205e-09 2.307819411496e+00
    2.386048436165e-06 9.831509669311e-03 5.202367901802e-06 5.153597633362e+03
    5.472000000000e+05-7.823109626770e-08-1.398181555074e-01-1.527369022369e-07
    9.605558597843e-01 2.767812500000e+02 9.704817413971e-01-8.193555580192e-09
    1.357199389945e-11 1.000000000000e+00 2.166000000000e+03 0.000000000000e+00
    2.400000000000e+00 0.000000000000e+00 5.587935447693e-09 5.000000000000e+01
    5.400000000000e+05 4.000000000000e+00
